ONEWEB-0207             
1 48242U 21031AJ  24127.87669463  .00000108  00000+0  25675-3 0  9998
2 48242  87.8943  83.1571 0002082  75.2337 284.9023 13.14502689146968
ONEWEB-0208             
1 48243U 21031AK  24127.93457264  .00000176  00000+0  43906-3 0  9992
2 48243  87.8942  83.1607 0002235  84.0831 276.0554 13.14504338146981
ONEWEB-0200             
1 48244U 21031AL  24127.89809406 -.00000164  00000+0 -47645-3 0  9990
2 48244  87.8941  83.1656 0002274  85.8369 274.3020 13.14503630146908
ONEWEB-0217             
1 48245U 21031AM  24127.83784797 -.00000119  00000+0 -35509-3 0  9996
2 48245  87.8941  83.1624 0002369  88.2181 271.9220 13.14503525146849
ONEWEB-0211             
1 48767U 21045A   24127.87370682  .00000034  00000+0  56519-4 0  9997
2 48767  87.9053  52.6673 0001970  81.5889 278.5465 13.15550309143008
ONEWEB-0223             
1 48768U 21045B   24127.81983249 -.00000047  00000+0 -15823-3 0  9999
2 48768  87.9054  52.6839 0001977 102.1295 258.0057 13.15549945142982
